NUSAT-1 (FRESCO)        
1 41557U 16033B   22184.22190854  .00005977  00000+0  17827-3 0  9998
2 41557  97.3898 281.9487 0009315 326.9444 116.7825 15.34991256339805
BEESAT-4                
1 41619U 16040W   22183.86375396  .00008732  00000+0  28920-3 0  9998
2 41619  97.2150 234.0838 0010903  69.1551 291.0857 15.31476130323084
CAS-2T & KS-1Q          
1 41847U 16066G   22183.78405938  .00000564  00000+0  93861-4 0  9998
2 41847  98.5503 248.4393 0364232 163.8649 197.4509 14.38607348296552
NAYIF-1 (EO-88)         
1 42017U 17008BX  22183.75494329  .00010505  00000+0  31123-3 0  9992
2 42017  97.2676 249.6500 0005564 171.3127 188.8214 15.35026780299426
ZHUHAI-1 02 (CAS-4B)    
1 42759U 17034B   22184.49883095  .00001672  00000+0  10851-3 0  9998
2 42759  43.0171 244.2552 0008691  20.5075  72.4750 15.12007520278782
ZHUHAI-1 01 (CAS-4A)    
1 42761U 17034D   22184.54194859  .00001575  00000+0  10274-3 0  9991
2 42761  43.0174 242.7880 0009214  23.2965 114.8847 15.12092314278799
MAX VALIER SAT          
1 42778U 17036P   22184.11502655  .00005029  00000+0  19107-3 0  9993
2 42778  97.2032 224.6789 0008712 268.8059  91.2182 15.27209719279292
RADFXSAT (FOX-1B)       
1 43017U 17073E   22184.44760492  .00001755  00000+0  13510-3 0  9996
2 43017  97.6736  77.9870 0249444 135.2192 226.9457 14.81468063249486
FOX-1D (AO-92)          
1 43137U 18004AC  22183.86216339  .00005365  00000+0  18944-3 0  9992
2 43137  97.3679 258.8817 0006079 314.3690  45.7052 15.29628631248705
DIWATA-2B               
1 43678U 18084H   22184.14085294  .00000819  00000+0  86170-4 0  9992
2 43678  97.9732 317.5917 0008702 227.8403 132.2071 14.92195212200197
ES'HAIL 2               
1 43700U 18090A   22184.29583519  .00000153  00000+0  00000+0 0  9998
2 43700   0.0218  34.9312 0001070  82.5679 296.1075  1.00268636 13437
FOX-1CLIFF (AO-95)      
1 43770U 18099N   22184.16996548  .00000815  00000+0  76666-4 0  9991
2 43770  97.6199 250.1122 0013307 218.4464 141.5810 14.96493865195369
ITASAT 1                
1 43786U 18099AE  22184.42918720  .00000362  00000+0  36687-4 0  9999
2 43786  97.6204 251.2899 0014000 210.6368 149.4096 14.96635674195442
JY1SAT (JO-97)          
1 43803U 18099AX  22183.63960202  .00000931  00000+0  85494-4 0  9995
2 43803  97.6186 250.2819 0014052 212.1592 147.8774 14.97136791195346
UWE-4                   
1 43880U 18111E   22183.69517241  .00001905  00000+0  16518-3 0  9994
2 43880  97.6685  89.7403 0009551 270.4593  89.5535 14.98231348191983
NEXUS (FO-99)           
1 43937U 19003F   22183.59563120  .00007957  00000+0  26617-3 0  9998
2 43937  97.1284 216.3586 0022591  99.9828 260.3965 15.30986249192295
PSAT2 (NO-104)          
1 44354U 19036R   22183.88179998  .00048730 -55044-5  41700-3 0  9995
2 44354  28.5247  71.2457 0223721 144.7079 216.8556 15.41600335167066
JAISAT-1                
1 44419U 19038F   22183.86759264  .00004769  00000+0  24007-3 0  9997
2 44419  97.6365 154.1162 0021294  79.5263 280.8368 15.17505347165397
DUCHIFAT-3              
1 44854U 19089C   22183.89853274  .00001864  00000+0  14869-3 0  9993
2 44854  36.9687   8.7748 0009442 341.9147 162.1639 15.01160588140253
CAS-6 (TO-108)          
1 44881U 19093C   22184.38050924  .00000315  00000+0  46610-4 0  9994
2 44881  97.8930 263.3613 0016055 130.8697 229.3915 14.81743546137137
RS-44 & BREEZE-KM R/B   
1 44909U 19096E   22183.59248118  .00000008  00000+0 -59566-5 0  9999
2 44909  82.5202 220.2179 0216195 284.4302  73.2896 12.79713775117448
ORBITAL FACTORY 2 (OF-2)
1 45113U 19071C   22183.81954813  .00017578  00000+0  36080-3 0  9994
2 45113  51.6396 343.7228 0009680 227.6868 132.3299 15.46063592135758
HUSKYSAT-1 (HO-107)     
1 45119U 19071J   22184.15824225  .00015553  00000+0  33121-3 0  9995
2 45119  51.6398 342.2084 0009468 225.0357 134.9862 15.45081147135792
BY70-2                  
1 45857U 20042B   22184.38309358  .00004014  00000+0  53712-3 0  9992
2 45857  97.9549 261.0710 0011982  71.2081 289.0401 14.79971972107818
SALSAT                  
1 46495U 20068K   22183.79231266  .00001466  00000+0  10883-3 0  9995
2 46495  97.7296 125.0975 0015456 222.4188 137.5844 15.04560843 96493
BY70-3                  
1 46839U 20079N   22183.96283800  .00011794  00000+0  27367-3 0  9999
2 46839  97.1980 255.8585 0003745 267.3784 267.2353 15.42528392 92639
RADFXSAT-2 (AO-109)     
1 47311U 21002C   22183.87213391  .00004603  00000+0  19044-3 0  9994
2 47311  60.6865 304.1949 0019115 350.2571   9.8144 15.25490518 80812
UVSQ-SAT                
1 47438U 21006AB  22183.72759619  .00003035  00000+0  16204-3 0  9993
2 47438  97.4358 242.4248 0011006 214.5604 145.4914 15.15832238 79596
DIY-1 (ARDUIQUBE)       
1 47963U 21022AH  22183.94733186  .00010316  00000+0  57151-3 0  9995
2 47963  97.5309  85.1296 0019198  79.8422 280.4974 15.13841982 69297
XW-3 (CAS-9)            
1 50466U 21131B   22184.51795773  .00000023  00000+0  22020-4 0  9994
2 50466  98.5804 261.7643 0005930 101.8530 258.3323 14.38504653 27229
TEVEL-3                 
1 50988U 22002E   22184.49413406  .00003365  00000+0  18577-3 0  9991
2 50988  97.4813 251.2096 0009635  19.0708 109.6302 15.14581300 25845
TEVEL-8                 
1 50989U 22002F   22184.49930378  .00003403  00000+0  18810-3 0  9997
2 50989  97.4821 251.2329 0009570  17.9968 108.0641 15.14529983 25845
TEVEL-5                 
1 50998U 22002Q   22184.44296439  .00003738  00000+0  20312-3 0  9996
2 50998  97.4804 251.2565 0010916  14.3342 109.6050 15.15061359 25841
TEVEL-6                 
1 50999U 22002R   22184.44254235  .00003751  00000+0  20379-3 0  9993
2 50999  97.4805 251.2557 0010888  14.1097 109.6461 15.15066054 25840
TEVEL-1                 
1 51013U 22002AF  22183.97651532  .00003432  00000+0  18951-3 0  9998
2 51013  97.4803 250.6829 0009731  19.9978 154.8556 15.14553970 25762
TEVEL-7                 
1 51062U 22002CG  22183.97192306  .00003594  00000+0  19853-3 0  9992
2 51062  97.4812 250.7025 0009770  19.0293 105.8042 15.14517625 25762
TEVEL-4                 
1 51063U 22002CH  22183.97277867  .00003549  00000+0  19609-3 0  9998
2 51063  97.4813 250.7000 0009637  19.5117 107.0110 15.14509453 25769
TEVEL-2                 
1 51069U 22002CP  22184.49521868  .00003373  00000+0  18623-3 0  9995
2 51069  97.4812 251.1994 0009650  18.6800 110.0481 15.14573945 25846
